MALLIGYONG-1            
1 58400U 23179A   24240.53359827  .00008748  00000+0  38251-3 0  9991
2 58400  97.3922 126.1800 0000823  45.2167 314.9136 15.22312732 42570
